{
  "type": "FeatureCollection",
  "features": [
    {
      "type": "Feature",
      "properties": {
        "norad_id": 58647,
        "name": "TIANMU-1 13",
        "group": "weather",
        "lat": -39.92957055396769,
        "lon": 13.609668795113864,
        "alt_km": 496.4618769901217,
        "timestamp": "2025-12-13T18:50:04.071751+00:00",
        "meta_object_name": "TIANMU-1 13",
        "meta_object_id": "2023-205C",
        "meta_epoch": "2025-12-13T07:59:03.187392",
        "meta_mean_motion": 15.24539088,
        "meta_eccentricity": 0.00060287,
        "meta_inclination": 97.3627,
        "meta_ra_of_asc_node": 6.9521,
        "meta_arg_of_pericenter": 264.4252,
        "meta_mean_anomaly": 95.6298,
        "meta_ephemeris_type": 0,
        "meta_classification_type": "U",
        "meta_norad_cat_id": 58647,
        "meta_element_set_no": 999,
        "meta_rev_at_epoch": 10916,
        "meta_bstar": 0.00042799436,
        "meta_mean_motion_dot": 0.00010474,
        "meta_mean_motion_ddot": 0,
        "tle_line1": "1 58647U 23205C   25347.33267578  .00010474  00000+0  42799-3 0  9993",
        "tle_line2": "2 58647  97.3627   6.9521 0006028 264.4252  95.6298 15.24539088109161"
      },
      "geometry": {
        "type": "Point",
        "coordinates": [
          13.609668795113864,
          -39.92957055396769
        ]
      }
    },
    {
      "type": "Feature",
      "properties": {
        "norad_id": 58648,
        "name": "TIANMU-1 14",
        "group": "weather",
        "lat": 50.09729432201289,
        "lon": -2.1432001613904426,
        "alt_km": 491.3703544512273,
        "timestamp": "2025-12-13T18:50:04.071762+00:00",
        "meta_object_name": "TIANMU-1 14",
        "meta_object_id": "2023-205D",
        "meta_epoch": "2025-12-13T07:35:09.402720",
        "meta_mean_motion": 15.2452213,
        "meta_eccentricity": 0.00068296,
        "meta_inclination": 97.3559,
        "meta_ra_of_asc_node": 6.2838,
        "meta_arg_of_pericenter": 270.3014,
        "meta_mean_anomaly": 89.7441,
        "meta_ephemeris_type": 0,
        "meta_classification_type": "U",
        "meta_norad_cat_id": 58648,
        "meta_element_set_no": 999,
        "meta_rev_at_epoch": 10916,
        "meta_bstar": 0.00040861279,
        "meta_mean_motion_dot": 9.992e-05,
        "meta_mean_motion_ddot": 0,
        "tle_line1": "1 58648U 23205D   25347.31608105  .00009992  00000+0  40861-3 0  9998",
        "tle_line2": "2 58648  97.3559   6.2838 0006829 270.3014  89.7441 15.24522130109165"
      },
      "geometry": {
        "type": "Point",
        "coordinates": [
          -2.1432001613904426,
          50.09729432201289
        ]
      }
    },
    {
      "type": "Feature",
      "properties": {
        "norad_id": 58660,
        "name": "TIANMU-1 19",
        "group": "weather",
        "lat": -41.44622265284383,
        "lon": 105.44434816261494,
        "alt_km": 487.7906056773909,
        "timestamp": "2025-12-13T18:50:04.071773+00:00",
        "meta_object_name": "TIANMU-1 19",
        "meta_object_id": "2023-208A",
        "meta_epoch": "2025-12-13T06:26:34.277856",
        "meta_mean_motion": 15.27866633,
        "meta_eccentricity": 0.0004124,
        "meta_inclination": 97.4383,
        "meta_ra_of_asc_node": 98.3042,
        "meta_arg_of_pericenter": 250.7762,
        "meta_mean_anomaly": 109.3031,
        "meta_ephemeris_type": 0,
        "meta_classification_type": "U",
        "meta_norad_cat_id": 58660,
        "meta_element_set_no": 999,
        "meta_rev_at_epoch": 10890,
        "meta_bstar": 0.00054763374,
        "meta_mean_motion_dot": 0.00014841,
        "meta_mean_motion_ddot": 0,
        "tle_line1": "1 58660U 23208A   25347.26845229  .00014841  00000+0  54763-3 0  9994",
        "tle_line2": "2 58660  97.4383  98.3042 0004124 250.7762 109.3031 15.27866633108909"
      },
      "geometry": {
        "type": "Point",
        "coordinates": [
          105.44434816261494,
          -41.44622265284383
        ]
      }
    },
    {
      "type": "Feature",
      "properties": {
        "norad_id": 58661,
        "name": "TIANMU-1 20",
        "group": "weather",
        "lat": 36.4838896356002,
        "lon": 93.72831235636997,
        "alt_km": 479.1727391609793,
        "timestamp": "2025-12-13T18:50:04.071783+00:00",
        "meta_object_name": "TIANMU-1 20",
        "meta_object_id": "2023-208B",
        "meta_epoch": "2025-12-13T06:06:32.346720",
        "meta_mean_motion": 15.29057012,
        "meta_eccentricity": 0.00063184,
        "meta_inclination": 97.4321,
        "meta_ra_of_asc_node": 98.7385,
        "meta_arg_of_pericenter": 263.7138,
        "meta_mean_anomaly": 96.3382,
        "meta_ephemeris_type": 0,
        "meta_classification_type": "U",
        "meta_norad_cat_id": 58661,
        "meta_element_set_no": 999,
        "meta_rev_at_epoch": 10897,
        "meta_bstar": 0.0005201806,
        "meta_mean_motion_dot": 0.0001462,
        "meta_mean_motion_ddot": 0,
        "tle_line1": "1 58661U 23208B   25347.25454105  .00014620  00000+0  52018-3 0  9999",
        "tle_line2": "2 58661  97.4321  98.7385 0006318 263.7138  96.3382 15.29057012108970"
      },
      "geometry": {
        "type": "Point",
        "coordinates": [
          93.72831235636997,
          36.4838896356002
        ]
      }
    },
    {
      "type": "Feature",
      "properties": {
        "norad_id": 58662,
        "name": "TIANMU-1 21",
        "group": "weather",
        "lat": 50.399594869175516,
        "lon": 92.09646644820444,
        "alt_km": 470.17496405664315,
        "timestamp": "2025-12-13T18:50:04.071796+00:00",
        "meta_object_name": "TIANMU-1 21",
        "meta_object_id": "2023-208C",
        "meta_epoch": "2025-12-13T07:38:10.631040",
        "meta_mean_motion": 15.31572186,
        "meta_eccentricity": 0.00058898,
        "meta_inclination": 97.4369,
        "meta_ra_of_asc_node": 100.7131,
        "meta_arg_of_pericenter": 257.4505,
        "meta_mean_anomaly": 102.6077,
        "meta_ephemeris_type": 0,
        "meta_classification_type": "U",
        "meta_norad_cat_id": 58662,
        "meta_element_set_no": 999,
        "meta_rev_at_epoch": 10908,
        "meta_bstar": 0.0005544551,
        "meta_mean_motion_dot": 0.00016853,
        "meta_mean_motion_ddot": 0,
        "tle_line1": "1 58662U 23208C   25347.31817860  .00016853  00000+0  55446-3 0  9996",
        "tle_line2": "2 58662  97.4369 100.7131 0005889 257.4505 102.6077 15.31572186109088"
      },
      "geometry": {
        "type": "Point",
        "coordinates": [
          92.09646644820444,
          50.399594869175516
        ]
      }
    },
    {
      "type": "Feature",
      "properties": {
        "norad_id": 58663,
        "name": "TIANMU-1 22",
        "group": "weather",
        "lat": -41.196486266646936,
        "lon": 105.44417134613266,
        "alt_km": 488.0248982653011,
        "timestamp": "2025-12-13T18:50:04.071807+00:00",
        "meta_object_name": "TIANMU-1 22",
        "meta_object_id": "2023-208D",
        "meta_epoch": "2025-12-13T06:26:22.892928",
        "meta_mean_motion": 15.27619992,
        "meta_eccentricity": 0.00026979,
        "meta_inclination": 97.4377,
        "meta_ra_of_asc_node": 98.3629,
        "meta_arg_of_pericenter": 284.385,
        "meta_mean_anomaly": 75.7089,
        "meta_ephemeris_type": 0,
        "meta_classification_type": "U",
        "meta_norad_cat_id": 58663,
        "meta_element_set_no": 999,
        "meta_rev_at_epoch": 10891,
        "meta_bstar": 0.00051330861,
        "meta_mean_motion_dot": 0.00013799,
        "meta_mean_motion_ddot": 0,
        "tle_line1": "1 58663U 23208D   25347.26832052  .00013799  00000+0  51331-3 0  9996",
        "tle_line2": "2 58663  97.4377  98.3629 0002697 284.3850  75.7089 15.27619992108914"
      },
      "geometry": {
        "type": "Point",
        "coordinates": [
          105.44417134613266,
          -41.196486266646936
        ]
      }
    },
    {
      "type": "Feature",
      "properties": {
        "norad_id": 58700,
        "name": "TIANMU-1 15",
        "group": "weather",
        "lat": 75.23143856289063,
        "lon": 139.43203107954653,
        "alt_km": 487.1807142809075,
        "timestamp": "2025-12-13T18:50:04.071818+00:00",
        "meta_object_name": "TIANMU-1 15",
        "meta_object_id": "2024-004A",
        "meta_epoch": "2025-12-11T12:56:40.540704",
        "meta_mean_motion": 15.24670451,
        "meta_eccentricity": 0.00052437,
        "meta_inclination": 97.4631,
        "meta_ra_of_asc_node": 167.0136,
        "meta_arg_of_pericenter": 303.7498,
        "meta_mean_anomaly": 56.324,
        "meta_ephemeris_type": 0,
        "meta_classification_type": "U",
        "meta_norad_cat_id": 58700,
        "meta_element_set_no": 999,
        "meta_rev_at_epoch": 10716,
        "meta_bstar": 0.00086402607,
        "meta_mean_motion_dot": 0.00021326,
        "meta_mean_motion_ddot": 0,
        "tle_line1": "1 58700U 24004A   25345.53935811  .00021326  00000+0  86403-3 0  9991",
        "tle_line2": "2 58700  97.4631 167.0136 0005243 303.7498  56.3240 15.24670451107164"
      },
      "geometry": {
        "type": "Point",
        "coordinates": [
          139.43203107954653,
          75.23143856289063
        ]
      }
    }
  ]
}